{
  "type": "FeatureCollection",
  "features": [
    {
      "type": "Feature",
      "properties": {
        "norad_id": 30442,
        "name": "FENGYUN 1C DEB",
        "group": "fengyun-1c-debris",
        "lat": 60.31005314535251,
        "lon": -94.41506509153406,
        "alt_km": 827.3183518195592,
        "timestamp": "2025-12-02T06:27:53.289964+00:00",
        "meta_object_name": "FENGYUN 1C DEB",
        "meta_object_id": "1999-025AFD",
        "meta_epoch": "2025-12-01T04:41:41.613792",
        "meta_mean_motion": 14.28421578,
        "meta_eccentricity": 0.0053846,
        "meta_inclination": 98.8663,
        "meta_ra_of_asc_node": 68.6056,
        "meta_arg_of_pericenter": 321.7021,
        "meta_mean_anomaly": 38.0341,
        "meta_ephemeris_type": 0,
        "meta_classification_type": "U",
        "meta_norad_cat_id": 30442,
        "meta_element_set_no": 999,
        "meta_rev_at_epoch": 96997,
        "meta_bstar": 0.0024337,
        "meta_mean_motion_dot": 6.141e-05,
        "meta_mean_motion_ddot": 0,
        "tle_line1": "1 30442U 99025AFD 25335.19562053  .00006141  00000+0  24337-2 0  9999",
        "tle_line2": "2 30442  98.8663  68.6056 0053846 321.7021  38.0341 14.28421578969979"
      },
      "geometry": {
        "type": "Point",
        "coordinates": [
          -94.41506509153406,
          60.31005314535251
        ]
      }
    },
    {
      "type": "Feature",
      "properties": {
        "norad_id": 30443,
        "name": "FENGYUN 1C DEB",
        "group": "fengyun-1c-debris",
        "lat": -23.329395802705502,
        "lon": -73.04954567042348,
        "alt_km": 757.8178157233724,
        "timestamp": "2025-12-02T06:27:53.289975+00:00",
        "meta_object_name": "FENGYUN 1C DEB",
        "meta_object_id": "1999-025AFE",
        "meta_epoch": "2025-12-01T18:52:21.065088",
        "meta_mean_motion": 14.36531644,
        "meta_eccentricity": 0.0028677,
        "meta_inclination": 98.8472,
        "meta_ra_of_asc_node": 282.6029,
        "meta_arg_of_pericenter": 9.1118,
        "meta_mean_anomaly": 351.0582,
        "meta_ephemeris_type": 0,
        "meta_classification_type": "U",
        "meta_norad_cat_id": 30443,
        "meta_element_set_no": 999,
        "meta_rev_at_epoch": 97276,
        "meta_bstar": 0.0026141,
        "meta_mean_motion_dot": 7.674e-05,
        "meta_mean_motion_ddot": 0,
        "tle_line1": "1 30443U 99025AFE 25335.78635492  .00007674  00000+0  26141-2 0  9990",
        "tle_line2": "2 30443  98.8472 282.6029 0028677   9.1118 351.0582 14.36531644972765"
      },
      "geometry": {
        "type": "Point",
        "coordinates": [
          -73.04954567042348,
          -23.329395802705502
        ]
      }
    },
    {
      "type": "Feature",
      "properties": {
        "norad_id": 30445,
        "name": "FENGYUN 1C DEB",
        "group": "fengyun-1c-debris",
        "lat": -45.60197644173041,
        "lon": 98.00432560545701,
        "alt_km": 812.4456088100123,
        "timestamp": "2025-12-02T06:27:53.289985+00:00",
        "meta_object_name": "FENGYUN 1C DEB",
        "meta_object_id": "1999-025AFG",
        "meta_epoch": "2025-12-01T19:28:56.019072",
        "meta_mean_motion": 14.48636546,
        "meta_eccentricity": 0.010656,
        "meta_inclination": 98.8331,
        "meta_ra_of_asc_node": 286.6633,
        "meta_arg_of_pericenter": 50.8921,
        "meta_mean_anomaly": 310.1688,
        "meta_ephemeris_type": 0,
        "meta_classification_type": "U",
        "meta_norad_cat_id": 30445,
        "meta_element_set_no": 999,
        "meta_rev_at_epoch": 99026,
        "meta_bstar": 0.00075583,
        "meta_mean_motion_dot": 3.005e-05,
        "meta_mean_motion_ddot": 0,
        "tle_line1": "1 30445U 99025AFG 25335.81175948  .00003005  00000+0  75583-3 0  9990",
        "tle_line2": "2 30445  98.8331 286.6633 0106560  50.8921 310.1688 14.48636546990267"
      },
      "geometry": {
        "type": "Point",
        "coordinates": [
          98.00432560545701,
          -45.60197644173041
        ]
      }
    },
    {
      "type": "Feature",
      "properties": {
        "norad_id": 30446,
        "name": "FENGYUN 1C DEB",
        "group": "fengyun-1c-debris",
        "lat": 20.36756816532098,
        "lon": -118.14173129747084,
        "alt_km": 721.6104329323189,
        "timestamp": "2025-12-02T06:27:53.289995+00:00",
        "meta_object_name": "FENGYUN 1C DEB",
        "meta_object_id": "1999-025AFH",
        "meta_epoch": "2025-12-01T04:47:44.396160",
        "meta_mean_motion": 14.44493967,
        "meta_eccentricity": 0.0035673,
        "meta_inclination": 98.615,
        "meta_ra_of_asc_node": 57.5483,
        "meta_arg_of_pericenter": 132.3562,
        "meta_mean_anomaly": 228.0659,
        "meta_ephemeris_type": 0,
        "meta_classification_type": "U",
        "meta_norad_cat_id": 30446,
        "meta_element_set_no": 999,
        "meta_rev_at_epoch": 98010,
        "meta_bstar": 0.0022955,
        "meta_mean_motion_dot": 7.951e-05,
        "meta_mean_motion_ddot": 0,
        "tle_line1": "1 30446U 99025AFH 25335.19981940  .00007951  00000+0  22955-2 0  9997",
        "tle_line2": "2 30446  98.6150  57.5483 0035673 132.3562 228.0659 14.44493967980107"
      },
      "geometry": {
        "type": "Point",
        "coordinates": [
          -118.14173129747084,
          20.36756816532098
        ]
      }
    },
    {
      "type": "Feature",
      "properties": {
        "norad_id": 30447,
        "name": "FENGYUN 1C DEB",
        "group": "fengyun-1c-debris",
        "lat": -14.523317118344247,
        "lon": 14.685707879465568,
        "alt_km": 738.6827212178341,
        "timestamp": "2025-12-02T06:27:53.290006+00:00",
        "meta_object_name": "FENGYUN 1C DEB",
        "meta_object_id": "1999-025AFJ",
        "meta_epoch": "2025-12-01T03:44:57.890112",
        "meta_mean_motion": 14.56185979,
        "meta_eccentricity": 0.00595087,
        "meta_inclination": 98.9717,
        "meta_ra_of_asc_node": 195.8349,
        "meta_arg_of_pericenter": 64.9639,
        "meta_mean_anomaly": 57.0615,
        "meta_ephemeris_type": 0,
        "meta_classification_type": "U",
        "meta_norad_cat_id": 30447,
        "meta_element_set_no": 999,
        "meta_rev_at_epoch": 97927,
        "meta_bstar": 0.0025374093,
        "meta_mean_motion_dot": 0.00011444,
        "meta_mean_motion_ddot": 0,
        "tle_line1": "1 30447U 99025AFJ 25335.15622558  .00011444  00000+0  25374-2 0  9991",
        "tle_line2": "2 30447  98.9717 195.8349 0059508  64.9639  57.0615 14.56185979979277"
      },
      "geometry": {
        "type": "Point",
        "coordinates": [
          14.685707879465568,
          -14.523317118344247
        ]
      }
    },
    {
      "type": "Feature",
      "properties": {
        "norad_id": 30448,
        "name": "FENGYUN 1C DEB",
        "group": "fengyun-1c-debris",
        "lat": -0.8890620882622666,
        "lon": 67.76551389636806,
        "alt_km": 769.6593522269486,
        "timestamp": "2025-12-02T06:27:53.290015+00:00",
        "meta_object_name": "FENGYUN 1C DEB",
        "meta_object_id": "1999-025AFK",
        "meta_epoch": "2025-12-01T05:29:35.695968",
        "meta_mean_motion": 14.3493383,
        "meta_eccentricity": 0.0017446,
        "meta_inclination": 98.8319,
        "meta_ra_of_asc_node": 66.5635,
        "meta_arg_of_pericenter": 48.6267,
        "meta_mean_anomaly": 338.8919,
        "meta_ephemeris_type": 0,
        "meta_classification_type": "U",
        "meta_norad_cat_id": 30448,
        "meta_element_set_no": 999,
        "meta_rev_at_epoch": 97173,
        "meta_bstar": 0.002319,
        "meta_mean_motion_dot": 6.566e-05,
        "meta_mean_motion_ddot": 0,
        "tle_line1": "1 30448U 99025AFK 25335.22888537  .00006566  00000+0  23190-2 0  9994",
        "tle_line2": "2 30448  98.8319  66.5635 0017446  48.6267 338.8919 14.34933830971731"
      },
      "geometry": {
        "type": "Point",
        "coordinates": [
          67.76551389636806,
          -0.8890620882622666
        ]
      }
    },
    {
      "type": "Feature",
      "properties": {
        "norad_id": 30450,
        "name": "FENGYUN 1C DEB",
        "group": "fengyun-1c-debris",
        "lat": -19.222892007023216,
        "lon": 167.69421157962154,
        "alt_km": 592.7298022987052,
        "timestamp": "2025-12-02T06:27:53.290025+00:00",
        "meta_object_name": "FENGYUN 1C DEB",
        "meta_object_id": "1999-025AFM",
        "meta_epoch": "2025-12-01T00:13:11.469792",
        "meta_mean_motion": 14.61637667,
        "meta_eccentricity": 0.0188842,
        "meta_inclination": 98.0814,
        "meta_ra_of_asc_node": 349.3016,
        "meta_arg_of_pericenter": 245.2847,
        "meta_mean_anomaly": 168.3096,
        "meta_ephemeris_type": 0,
        "meta_classification_type": "U",
        "meta_norad_cat_id": 30450,
        "meta_element_set_no": 999,
        "meta_rev_at_epoch": 99371,
        "meta_bstar": 0.00071160828,
        "meta_mean_motion_dot": 4.51e-05,
        "meta_mean_motion_ddot": 0,
        "tle_line1": "1 30450U 99025AFM 25335.00916053  .00004510  00000+0  71161-3 0  9997",
        "tle_line2": "2 30450  98.0814 349.3016 0188842 245.2847 168.3096 14.61637667993712"
      },
      "geometry": {
        "type": "Point",
        "coordinates": [
          167.69421157962154,
          -19.222892007023216
        ]
      }
    }
  ]
}